OBJECT_NAME,OBJECT_ID,EPOCH,MEAN_MOTION,ECCENTRICITY,INCLINATION,RA_OF_ASC_NODE,ARG_OF_PERICENTER,MEAN_ANOMALY,EPHEMERIS_TYPE,CLASSIFICATION_TYPE,NORAD_CAT_ID,ELEMENT_SET_NO,REV_AT_EPOCH,BSTAR,MEAN_MOTION_DOT,MEAN_MOTION_DDOT
CUTE-1 (CO-55),2003-031E,2026-05-14T07:37:44.203008,14.24313873,.00083175,98.6747,143.3023,286.1175,73.9088,0,U,27844,999,18685,.10815658E-3,.206E-5,0
CUBESAT XI-IV (CO-57),2003-031J,2026-05-14T00:11:52.373184,14.23601767,.00084237,98.6778,142.7365,308.1331,51.9088,0,U,27848,999,18651,.90172089E-4,.162E-5,0
CUBESAT XI-V,2005-043F,2026-05-13T09:49:01.644384,14.72536322,.00131215,98.2946,288.3105,319.7744,40.2490,0,U,28895,999,9663,.13288979E-3,.792E-5,0
CUTE-1.7+APD II (CO-65),2008-021C,2026-05-14T05:42:11.892096,15.09113918,.00100937,97.8259,114.9634,136.5210,223.6816,0,U,32785,999,98007,.22256879E-3,.3466E-4,0
CANX-2,2008-021H,2026-05-13T11:02:51.484704,15.05361840,.00112349,97.8625,112.5755,151.8484,208.3351,0,U,32790,999,97958,.14186911E-3,.197E-4,0
SEEDS II (CO-66),2008-021J,2026-05-13T23:28:07.159296,15.31540490,.00049811,97.7520,130.2774,82.4291,277.7515,0,U,32791,999,98205,.40133548E-3,.12151E-3,0
SWISSCUBE,2009-051B,2026-05-14T05:35:14.374464,14.62412477,.00061096,98.4058,41.5281,329.7400,30.3447,0,U,35932,999,88419,.13431828E-3,.63E-5,0
BEESAT-1,2009-051C,2026-05-14T07:02:08.845152,14.61662089,.00049576,98.3987,41.2955,348.0397,12.0685,0,U,35933,999,88423,.1177968E-3,.537E-5,0
ITUPSAT1,2009-051E,2026-05-14T06:06:23.176224,14.60386734,.00073557,98.4073,40.4839,355.0822,5.0304,0,U,35935,999,88378,.11030892E-3,.485E-5,0
TISAT 1,2010-035E,2026-05-14T06:16:46.322400,15.30369549,.00033827,98.0692,77.8426,50.2995,309.8541,0,U,36799,999,86251,.46422471E-3,.13561E-3,0
STRAND-1,2013-009E,2026-05-14T00:15:26.246016,14.37142218,.00081281,98.3916,315.0879,341.2705,18.8182,0,U,39090,999,69215,.72578373E-4,.173E-5,0
BRITE-AUSTRIA,2013-009F,2026-05-13T10:50:27.342240,14.36527680,.00098989,98.3988,313.7488,350.9654,9.1353,0,U,39091,999,69206,.49497909E-4,.103E-5,0
ZACUBE-1 (TSHEPISOSAT),2013-066B,2026-05-14T03:26:34.626912,15.00915790,.00417167,97.8119,96.2956,7.6658,352.5194,0,U,39417,999,67562,.24077366E-3,.3059E-4,0
TRITON-1,2013-066M,2026-05-14T07:49:18.003648,14.81553095,.00900761,97.8267,44.9038,345.8433,14.0257,0,U,39427,999,66907,.23477689E-3,.1919E-4,0
CUBEBUG-2 (LO-74),2013-066AA,2026-05-14T07:10:12.670464,14.93496311,.00589026,97.8892,83.1463,138.5094,222.0619,0,U,39440,999,67193,.1540214E-3,.1615E-4,0
NEE-02 KRYSAOR,2013-066AB,2026-05-14T06:49:10.881408,14.86486357,.00661677,97.8883,73.7481,179.5622,180.5664,0,U,39441,999,67116,.1167708E-3,.1015E-4,0
FUNCUBE-1 (AO-73),2013-066AE,2026-05-14T05:51:08.608032,15.09034476,.00352124,97.8260,104.9971,321.9795,37.8948,0,U,39444,999,67454,.31442881E-3,.4978E-4,0
UWE-3,2013-066AG,2026-05-13T09:19:01.572096,14.96721930,.0050799,97.8680,89.2422,75.9697,284.7165,0,U,39446,999,67237,.18156966E-3,.2066E-4,0
BRITE-CA1 (TORONTO),2014-033L,2026-05-14T06:27:19.928160,14.72628840,.00791945,97.9690,263.8325,26.4750,334.0470,0,U,40020,999,63722,.74869307E-4,.447E-5,0
DUCHIFAT-1,2014-033M,2026-05-14T02:47:00.107808,15.58428307,.0006023,98.0509,188.6735,183.9716,176.1492,0,U,40021,999,65043,.83581933E-3,.63959E-3,0
QB50P1,2014-033R,2026-05-14T06:25:48.849600,15.17712502,.00082231,98.0978,143.0499,354.3347,5.7791,0,U,40025,999,64788,.26836725E-3,.5339E-4,0
