{"fetched_at":"2026-05-15T02:58:15Z","count":8847,"tles":[{"name":"BEESAT-1","line1":"1 35933U 09051C   26134.29315793  .00000537  00000+0  11780-3 0  9997","line2":"2 35933  98.3987  41.2955 0004957 348.0397  12.0685 14.61662089884234","category":"Other"},{"name":"SWISSCUBE","line1":"1 35932U 09051B   26134.23280526  .00000630  00000+0  13432-3 0  9995","line2":"2 35932  98.4058  41.5281 0006109 329.7400  30.3447 14.62412477884199","category":"ISS"},{"name":"FUNCUBE-1 (AO-73)","line1":"1 39444U 13066AE  26134.24384963  .00004978  00000+0  31443-3 0  9990","line2":"2 39444  97.8260 104.9971 0035212 321.9795  37.8948 15.09034476674542","category":"Other"},{"name":"TISAT 1","line1":"1 36799U 10035E   26134.26164725  .00013561  00000+0  46422-3 0  9998","line2":"2 36799  98.0692  77.8426 0003382  50.2995 309.8541 15.30369549862517","category":"Other"},{"name":"TRITON-1","line1":"1 39427U 13066M   26134.32590282  .00001919  00000+0  23478-3 0  9994","line2":"2 39427  97.8267  44.9038 0090076 345.8433  14.0257 14.81553095669074","category":"Other"},{"name":"QB50P1","line1":"1 40025U 14033R   26134.26792650  .00005339  00000+0  26837-3 0  9993","line2":"2 40025  98.0978 143.0499 0008223 354.3347   5.7791 15.17712502647881","category":"Other"},{"name":"ZACUBE-1 (TSHEPISOSAT)","line1":"1 39417U 13066B   26134.14345633  .00003059  00000+0  24077-3 0  9994","line2":"2 39417  97.8119  96.2956 0041716   7.6658 352.5194 15.00915790675621","category":"Other"},{"name":"CUTE-1 (CO-55)","line1":"1 27844U 03031E   26134.31787272  .00000206  00000+0  10816-3 0  9991","line2":"2 27844  98.6747 143.3023 0008317 286.1175  73.9088 14.24313873186852","category":"Other"},{"name":"CUBEBUG-2 (LO-74)","line1":"1 39440U 13066AA  26134.29875776  .00001615  00000+0  15402-3 0  9990","line2":"2 39440  97.8892  83.1463 0058902 138.5094 222.0619 14.93496311671933","category":"Other"},{"name":"CUBESAT XI-IV (CO-57)","line1":"1 27848U 03031J   26134.00824506  .00000162  00000+0  90172-4 0  9998","line2":"2 27848  98.6778 142.7365 0008423 308.1331  51.9088 14.23601767186519","category":"Other"},{"name":"UWE-3","line1":"1 39446U 13066AG  26133.38821264  .00002066  00000+0  18157-3 0  9999","line2":"2 39446  97.8680  89.2422 0050799  75.9697 284.7165 14.96721930672376","category":"Other"},{"name":"ITUPSAT1","line1":"1 35935U 09051E   26134.25443491  .00000485  00000+0  11031-3 0  9993","line2":"2 35935  98.4073  40.4839 0007355 355.0822   5.0304 14.60386734883789","category":"Other"},{"name":"CUTE-1.7+APD II (CO-65)","line1":"1 32785U 08021C   26134.23763764  .00003466  00000+0  22257-3 0  9999","line2":"2 32785  97.8259 114.9634 0010093 136.5210 223.6816 15.09113918980076","category":"Other"},{"name":"STRAND-1","line1":"1 39090U 13009E   26134.01072044  .00000173  00000+0  72578-4 0  9991","line2":"2 39090  98.3916 315.0879 0008128 341.2705  18.8182 14.37142218692157","category":"Other"},{"name":"BRITE-AUSTRIA","line1":"1 39091U 13009F   26133.45170535  .00000103  00000+0  49498-4 0  9991","line2":"2 39091  98.3988 313.7488 0009898 350.9654   9.1353 14.36527680692065","category":"Other"},{"name":"CUBESAT XI-V","line1":"1 28895U 05043F   26133.40904681  .00000792  00000+0  13289-3 0  9994","line2":"2 28895  98.2946 288.3105 0013121 319.7744  40.2490 14.72536322 96630","category":"Other"},{"name":"DUCHIFAT-1","line1":"1 40021U 14033M   26134.11597347  .00063959  00000+0  83582-3 0  9991","line2":"2 40021  98.0509 188.6735 0006023 183.9716 176.1492 15.58428307650435","category":"Other"},{"name":"SEEDS II (CO-66)","line1":"1 32791U 08021J   26133.97786064  .00012151  00000+0  40134-3 0  9999","line2":"2 32791  97.7520 130.2774 0004981  82.4291 277.7515 15.31540490982056","category":"Other"},{"name":"NEE-02 KRYSAOR","line1":"1 39441U 13066AB  26134.28415372  .00001015  00000+0  11677-3 0  9996","line2":"2 39441  97.8883  73.7481 0066167 179.5622 180.5664 14.86486357671167","category":"Other"},{"name":"BRITE-CA1 (TORONTO)","line1":"1 40020U 14033L   26134.26898065  .00000447  00000+0  74869-4 0  9999","line2":"2 40020  97.9690 263.8325 0079194  26.4750 334.0470 14.72628840637224","category":"Other"},{"name":"CANX-2","line1":"1 32790U 08021H   26133.46031811  .00001970  00000+0  14187-3 0  9991","line2":"2 32790  97.8625 112.5755 0011234 151.8484 208.3351 15.05361840979581","category":"Other"}]}